JILIN GAOFEN OBJECT D
1 68694U 26080D   26105.07430977  .00001013  00000+0  67430-4 0  9998
2 68694  97.6682 180.7187 0014244 278.7346  81.2269 15.09349528   124
JILIN GAOFEN OBJECT F
1 68696U 26080F   26110.57647781  .00000939  00000+0  62656-4 0  9995
2 68696  97.6629 186.2166 0013615 260.2856  99.6835 15.09455350   930
JILIN GAOFEN OBJECT G
1 68697U 26080G   26105.07421782  .00002560  00000+0  16347-3 0  9993
2 68697  97.6672 180.7171 0014131 282.1232  77.8414 15.09509936   109
2026-083A
1 68753U 26083A   26110.71007295  .00004198  00000+0  17713-3 0  9992
2 68753  98.2656 256.3576 0065053  66.8633 293.9438 15.22016955   589
2026-083B
1 68754U 26083B   26110.68150987  .00001997  00000+0  13988-3 0  9990
2 68754  98.2516 256.1857 0008778 248.8408 111.1879 15.06515394   569
2026-083D
1 68756U 26083D   26110.69205644  .00006565  00000+0  21824-3 0  9998
2 68756  96.9051 251.6262 0013438 258.6994 101.2739 15.31401106   566
2026-083E
1 68757U 26083E   26110.70661912  .00135059  00000+0  52360-2 0  9994
2 68757  98.2498 256.3121 0060397  66.9589 293.7999 15.23870238   572
2026-083F
1 68758U 26083F   26110.68154416  .00001636  00000+0  11404-3 0  9996
2 68758  96.9508 250.6096 0010260 244.3962 115.6207 15.06567852   546
2026-083G
1 68759U 26083G   26110.68144885  .00001627  00000+0  11335-3 0  9999
2 68759  96.9513 250.6125 0010444 244.4736 115.5413 15.06609432   538
DAQI-2
1 68760U 26084A   26109.13551653  .00000030  00000+0  15616-4 0  9999
2 68760  98.2883 183.5451 0004852 219.7145 140.3701 14.61978622   295
2026-083H
1 68762U 26083H   26110.68106546  .00001681  00000+0  11643-3 0  9997
2 68762  96.9507 250.6097 0011174 244.7160 115.2912 15.06777169   543
2026-083J
1 68763U 26083J   26110.68096453  .00001654  00000+0  11448-3 0  9996
2 68763  96.9512 250.6126 0011366 244.6734 115.3318 15.06821147   549
2026-083K
1 68764U 26083K   26110.68083867  .00001686  00000+0  11647-3 0  9998
2 68764  96.9511 250.6120 0010716 240.6456 119.3703 15.06876320   543
SPACEMOBILE-007
1 68765U 26085A   26110.15512012  .00033684  81193-5  17840-3 0  9994
2 68765  42.9612 171.3926 0162581 193.6002 166.0453 15.64310274   111
