[{"OBJECT_NAME":"JILIN GAOFEN OBJECT D","OBJECT_ID":"2026-080D","EPOCH":"2026-04-15T01:47:00.364128","MEAN_MOTION":15.09349528,"ECCENTRICITY":0.00142443,"INCLINATION":97.6682,"RA_OF_ASC_NODE":180.7187,"ARG_OF_PERICENTER":278.7346,"MEAN_ANOMALY":81.2269,"EPHEMERIS_TYPE":0,"CLASSIFICATION_TYPE":"U","NORAD_CAT_ID":68694,"ELEMENT_SET_NO":999,"REV_AT_EPOCH":12,"BSTAR":6.7430326e-5,"MEAN_MOTION_DOT":1.013e-5,"MEAN_MOTION_DDOT":0},{"OBJECT_NAME":"JILIN GAOFEN OBJECT F","OBJECT_ID":"2026-080F","EPOCH":"2026-04-20T13:50:07.682784","MEAN_MOTION":15.0945535,"ECCENTRICITY":0.0013615,"INCLINATION":97.6629,"RA_OF_ASC_NODE":186.2166,"ARG_OF_PERICENTER":260.2856,"MEAN_ANOMALY":99.6835,"EPHEMERIS_TYPE":0,"CLASSIFICATION_TYPE":"U","NORAD_CAT_ID":68696,"ELEMENT_SET_NO":999,"REV_AT_EPOCH":93,"BSTAR":6.2655853e-5,"MEAN_MOTION_DOT":9.39e-6,"MEAN_MOTION_DDOT":0},{"OBJECT_NAME":"JILIN GAOFEN OBJECT G","OBJECT_ID":"2026-080G","EPOCH":"2026-04-15T01:46:52.419648","MEAN_MOTION":15.09509936,"ECCENTRICITY":0.0014131,"INCLINATION":97.6672,"RA_OF_ASC_NODE":180.7171,"ARG_OF_PERICENTER":282.1232,"MEAN_ANOMALY":77.8414,"EPHEMERIS_TYPE":0,"CLASSIFICATION_TYPE":"U","NORAD_CAT_ID":68697,"ELEMENT_SET_NO":999,"REV_AT_EPOCH":10,"BSTAR":0.00016346539,"MEAN_MOTION_DOT":2.56e-5,"MEAN_MOTION_DDOT":0},{"OBJECT_NAME":"2026-083A","OBJECT_ID":"2026-083A","EPOCH":"2026-04-20T17:02:30.302880","MEAN_MOTION":15.22016955,"ECCENTRICITY":0.0065053,"INCLINATION":98.2656,"RA_OF_ASC_NODE":256.3576,"ARG_OF_PERICENTER":66.8633,"MEAN_ANOMALY":293.9438,"EPHEMERIS_TYPE":0,"CLASSIFICATION_TYPE":"U","NORAD_CAT_ID":68753,"ELEMENT_SET_NO":999,"REV_AT_EPOCH":58,"BSTAR":0.00017713,"MEAN_MOTION_DOT":4.198e-5,"MEAN_MOTION_DDOT":0},{"OBJECT_NAME":"2026-083B","OBJECT_ID":"2026-083B","EPOCH":"2026-04-20T16:21:22.452768","MEAN_MOTION":15.06515394,"ECCENTRICITY":0.0008778,"INCLINATION":98.2516,"RA_OF_ASC_NODE":256.1857,"ARG_OF_PERICENTER":248.8408,"MEAN_ANOMALY":111.1879,"EPHEMERIS_TYPE":0,"CLASSIFICATION_TYPE":"U","NORAD_CAT_ID":68754,"ELEMENT_SET_NO":999,"REV_AT_EPOCH":56,"BSTAR":0.00013988,"MEAN_MOTION_DOT":1.997e-5,"MEAN_MOTION_DDOT":0},{"OBJECT_NAME":"2026-083D","OBJECT_ID":"2026-083D","EPOCH":"2026-04-20T16:36:33.676416","MEAN_MOTION":15.31401106,"ECCENTRICITY":0.0013438,"INCLINATION":96.9051,"RA_OF_ASC_NODE":251.6262,"ARG_OF_PERICENTER":258.6994,"MEAN_ANOMALY":101.2739,"EPHEMERIS_TYPE":0,"CLASSIFICATION_TYPE":"U","NORAD_CAT_ID":68756,"ELEMENT_SET_NO":999,"REV_AT_EPOCH":56,"BSTAR":0.00021824,"MEAN_MOTION_DOT":6.565e-5,"MEAN_MOTION_DDOT":0},{"OBJECT_NAME":"2026-083E","OBJECT_ID":"2026-083E","EPOCH":"2026-04-20T16:57:31.891968","MEAN_MOTION":15.23870238,"ECCENTRICITY":0.0060397,"INCLINATION":98.2498,"RA_OF_ASC_NODE":256.3121,"ARG_OF_PERICENTER":66.9589,"MEAN_ANOMALY":293.7999,"EPHEMERIS_TYPE":0,"CLASSIFICATION_TYPE":"U","NORAD_CAT_ID":68757,"ELEMENT_SET_NO":999,"REV_AT_EPOCH":57,"BSTAR":0.005236,"MEAN_MOTION_DOT":0.00135059,"MEAN_MOTION_DDOT":0},{"OBJECT_NAME":"2026-083F","OBJECT_ID":"2026-083F","EPOCH":"2026-04-20T16:21:25.415424","MEAN_MOTION":15.06567852,"ECCENTRICITY":0.001026,"INCLINATION":96.9508,"RA_OF_ASC_NODE":250.6096,"ARG_OF_PERICENTER":244.3962,"MEAN_ANOMALY":115.6207,"EPHEMERIS_TYPE":0,"CLASSIFICATION_TYPE":"U","NORAD_CAT_ID":68758,"ELEMENT_SET_NO":999,"REV_AT_EPOCH":54,"BSTAR":0.00011404,"MEAN_MOTION_DOT":1.636e-5,"MEAN_MOTION_DDOT":0},{"OBJECT_NAME":"2026-083G","OBJECT_ID":"2026-083G","EPOCH":"2026-04-20T16:21:17.180640","MEAN_MOTION":15.06609432,"ECCENTRICITY":0.0010444,"INCLINATION":96.9513,"RA_OF_ASC_NODE":250.6125,"ARG_OF_PERICENTER":244.4736,"MEAN_ANOMALY":115.5413,"EPHEMERIS_TYPE":0,"CLASSIFICATION_TYPE":"U","NORAD_CAT_ID":68759,"ELEMENT_SET_NO":999,"REV_AT_EPOCH":53,"BSTAR":0.00011335,"MEAN_MOTION_DOT":1.627e-5,"MEAN_MOTION_DDOT":0},{"OBJECT_NAME":"DAQI-2","OBJECT_ID":"2026-084A","EPOCH":"2026-04-19T03:15:08.628192","MEAN_MOTION":14.61978622,"ECCENTRICITY":0.0004852,"INCLINATION":98.2883,"RA_OF_ASC_NODE":183.5451,"ARG_OF_PERICENTER":219.7145,"MEAN_ANOMALY":140.3701,"EPHEMERIS_TYPE":0,"CLASSIFICATION_TYPE":"U","NORAD_CAT_ID":68760,"ELEMENT_SET_NO":999,"REV_AT_EPOCH":29,"BSTAR":1.5616e-5,"MEAN_MOTION_DOT":3.0e-7,"MEAN_MOTION_DDOT":0},{"OBJECT_NAME":"2026-083H","OBJECT_ID":"2026-083H","EPOCH":"2026-04-20T16:20:44.055744","MEAN_MOTION":15.06777169,"ECCENTRICITY":0.0011174,"INCLINATION":96.9507,"RA_OF_ASC_NODE":250.6097,"ARG_OF_PERICENTER":244.716,"MEAN_ANOMALY":115.2912,"EPHEMERIS_TYPE":0,"CLASSIFICATION_TYPE":"U","NORAD_CAT_ID":68762,"ELEMENT_SET_NO":999,"REV_AT_EPOCH":54,"BSTAR":0.00011643,"MEAN_MOTION_DOT":1.681e-5,"MEAN_MOTION_DDOT":0},{"OBJECT_NAME":"2026-083J","OBJECT_ID":"2026-083J","EPOCH":"2026-04-20T16:20:35.335392","MEAN_MOTION":15.06821147,"ECCENTRICITY":0.0011366,"INCLINATION":96.9512,"RA_OF_ASC_NODE":250.6126,"ARG_OF_PERICENTER":244.6734,"MEAN_ANOMALY":115.3318,"EPHEMERIS_TYPE":0,"CLASSIFICATION_TYPE":"U","NORAD_CAT_ID":68763,"ELEMENT_SET_NO":999,"REV_AT_EPOCH":54,"BSTAR":0.00011448,"MEAN_MOTION_DOT":1.654e-5,"MEAN_MOTION_DDOT":0},{"OBJECT_NAME":"2026-083K","OBJECT_ID":"2026-083K","EPOCH":"2026-04-20T16:20:24.461088","MEAN_MOTION":15.0687632,"ECCENTRICITY":0.0010716,"INCLINATION":96.9511,"RA_OF_ASC_NODE":250.612,"ARG_OF_PERICENTER":240.6456,"MEAN_ANOMALY":119.3703,"EPHEMERIS_TYPE":0,"CLASSIFICATION_TYPE":"U","NORAD_CAT_ID":68764,"ELEMENT_SET_NO":999,"REV_AT_EPOCH":54,"BSTAR":0.00011647,"MEAN_MOTION_DOT":1.686e-5,"MEAN_MOTION_DDOT":0},{"OBJECT_NAME":"SPACEMOBILE-007","OBJECT_ID":"2026-085A","EPOCH":"2026-04-20T03:43:22.378368","MEAN_MOTION":15.64310274,"ECCENTRICITY":0.01625818,"INCLINATION":42.9612,"RA_OF_ASC_NODE":171.3926,"ARG_OF_PERICENTER":193.6002,"MEAN_ANOMALY":166.0453,"EPHEMERIS_TYPE":0,"CLASSIFICATION_TYPE":"U","NORAD_CAT_ID":68765,"ELEMENT_SET_NO":999,"REV_AT_EPOCH":11,"BSTAR":0.00017840325,"MEAN_MOTION_DOT":0.00033684,"MEAN_MOTION_DDOT":8.119271e-6}]
